NORAD_CAT_ID,OBJECT_NAME,OBJECT_TYPE,EPOCH,MEAN_MOTION,ECCENTRICITY,INCLINATION,RA_OF_ASC_NODE,ARG_OF_PERICENTER,MEAN_ANOMALY,BSTAR,MEAN_MOTION_DOT,MEAN_MOTION_DDOT,TLE_LINE0,TLE_LINE1,TLE_LINE2,SEMIMAJOR_AXIS,PERIOD,APOGEE,PERIGEE,DECAYED
51986.0,STARLINK-3645,PAYLOAD,2022-03-16 14:00:01,15.82886213,0.0001068,53.2173,105.1627,93.4085,146.0502,-0.0044605,-0.00875679,0.0,0 STARLINK-3645,1 51986U 22025AG  22075.58334491 -.00875679  00000-0 -44605-2 0  9998,2 51986  53.2173 105.1627 0001068  93.4085 146.0502 15.82886213  2372,6700.42,90.973,323.001,321.57,0.0
51986.0,STARLINK-3645,PAYLOAD,2022-03-16 20:00:01,15.82416444,0.0001149,53.2176,103.9065,73.1373,151.5298,-0.0045845,-0.00879808,0.0,0 STARLINK-3645,1 51986U 22025AG  22075.83334491 -.00879808  00000-0 -45845-2 0  9991,2 51986  53.2176 103.9065 0001149  73.1373 151.5298 15.82416444  1357,6701.746,91.0,324.381,322.841,0.0
51986.0,STARLINK-3645,PAYLOAD,2022-03-17 12:00:00,15.81153343,9.71e-05,53.2174,100.5673,84.9902,338.1526,-0.0048182,-0.00872123,0.0,0 STARLINK-3645,1 51986U 22025AG  22076.50001157 -.00872123  00000-0 -48182-2 0  9996,2 51986  53.2174 100.5673 0000971  84.9902 338.1526 15.81153343  2514,6705.315,91.073,327.831,326.529,0.0
51986.0,STARLINK-3645,PAYLOAD,2022-03-17 14:00:01,15.8099936,0.0001095999999999,53.2171,100.1498,80.7166,97.0214,-0.0048833,-0.00877108,0.0,0 STARLINK-3645,1 51986U 22025AG  22076.58334491 -.00877108  00000-0 -48833-2 0  9995,2 51986  53.2171 100.1498 0001096  80.7166  97.0214 15.80999360  1472,6705.75,91.082,328.35,326.88,0.0
51986.0,STARLINK-3645,PAYLOAD,2022-03-17 22:00:00,15.80368479,0.0001044,53.2174,98.4797,96.4419,179.2121,-0.0050126999999999,-0.00874591,0.0,0 STARLINK-3645,1 51986U 22025AG  22076.91667824 -.00874591  00000-0 -50127-2 0  9993,2 51986  53.2174  98.4797 0001044  96.4419 179.2121 15.80368479  1521,6707.535,91.118,330.1,328.7,0.0
51986.0,STARLINK-3645,PAYLOAD,2022-03-18 04:00:00,15.79898116,0.000119,53.2178,97.2306,64.6424,193.9498,-0.0051387,-0.00877095,0.0,0 STARLINK-3645,1 51986U 22025AG  22077.16667824 -.00877095  00000-0 -51387-2 0  9992,2 51986  53.2178  97.2306 0001190  64.6424 193.9498 15.79898116  2629,6708.866,91.145,331.529,329.93300000000005,0.0
51986.0,STARLINK-3645,PAYLOAD,2022-03-18 14:00:01,15.79112031,0.0001069,53.2171,95.1504,67.9287,41.2829,-0.0053312,-0.00877603,0.0,0 STARLINK-3645,1 51986U 22025AG  22077.58334491 -.00877603  00000-0 -53312-2 0  9994,2 51986  53.2171  95.1504 0001069  67.9287  41.2829 15.79112031  1635,6711.092,91.19,333.675,332.24,0.0
51986.0,STARLINK-3645,PAYLOAD,2022-03-18 22:00:00,15.78481547,0.0001207,53.2172,93.4852,67.2207,137.6379,-0.0054706,-0.00875325,0.0,0 STARLINK-3645,1 51986U 22025AG  22077.91667824 -.00875325  00000-0 -54706-2 0  9997,2 51986  53.2172  93.4852 0001207  67.2207 137.6379 15.78481547  1687,6712.879,91.227,335.5540000000001,333.934,0.0
51986.0,STARLINK-3645,PAYLOAD,2022-03-19 02:00:01,15.78166532,0.0001107999999999,53.2175,92.6545,61.0133,11.4501,-0.0055444,-0.00874585,0.0,0 STARLINK-3645,1 51986U 22025AG  22078.08335648 -.00874585  00000-0 -55444-2 0  9999,2 51986  53.2175  92.6545 0001108  61.0133  11.4501 15.78166532  2760,6713.773,91.245,336.381,334.894,0.0
51986.0,STARLINK-3645,PAYLOAD,2022-03-19 14:00:01,15.77223908,9.35e-05,53.2171,90.1653,88.7104,305.1692,-0.0057945,-0.00875807,0.0,0 STARLINK-3645,1 51986U 22025AG  22078.58334491 -.00875807  00000-0 -57945-2 0  9995,2 51986  53.2171  90.1653 0000935  88.7104 305.1692 15.77223908  1796,6716.446999999999,91.3,338.94,337.684,0.0
51986.0,STARLINK-3645,PAYLOAD,2022-03-19 20:00:01,15.767493,9.49e-05,53.2175,88.9196,75.7393,298.2461,-0.0058924999999999,-0.00872265,0.0,0 STARLINK-3645,1 51986U 22025AG  22078.83334491 -.00872265  00000-0 -58925-2 0  9997,2 51986  53.2175  88.9196 0000949  75.7393 298.2461 15.76749300  2883,6717.795,91.327,340.297,339.022,0.0
51986.0,STARLINK-3645,PAYLOAD,2022-03-19 22:00:01,15.76593894,0.0001124,53.2173,88.5046,68.613,58.7105,-0.0059596,-0.00875785,0.0,0 STARLINK-3645,1 51986U 22025AG  22078.91668981 -.00875785  00000-0 -59596-2 0  9995,2 51986  53.2173  88.5046 0001124  68.6130  58.7105 15.76593894  1841,6718.236,91.336,340.857,339.346,0.0
51986.0,STARLINK-3645,PAYLOAD,2022-03-20 12:00:00,15.75489483,0.0001147,53.2172,85.6081,88.09200000000001,110.7551,-0.0062079,-0.00869323,0.0,0 STARLINK-3645,1 51986U 22025AG  22079.50001157 -.00869323  00000-0 -62079-2 0  9998,2 51986  53.2172  85.6081 0001147  88.0920 110.7551 15.75489483  2982,6721.376,91.4,344.01199999999994,342.47,0.0
51986.0,STARLINK-3645,PAYLOAD,2022-03-20 14:00:01,15.75335869,0.0001018,53.2172,85.1938,96.481,215.2603,-0.0062977,-0.00875265,0.0,0 STARLINK-3645,1 51986U 22025AG  22079.58334491 -.00875265  00000-0 -62977-2 0  9995,2 51986  53.2172  85.1938 0001018  96.4810 215.2603 15.75335869  1959,6721.813,91.409,344.362,342.99300000000005,0.0
51986.0,STARLINK-3645,PAYLOAD,2022-03-20 22:00:01,15.74704483,9.73e-05,53.2172,83.538,76.7814,326.1365,-0.0064584,-0.00873232,0.0,0 STARLINK-3645,1 51986U 22025AG  22079.91668981 -.00873232  00000-0 -64584-2 0  9994,2 51986  53.2172  83.5380 0000973  76.7814 326.1365 15.74704483  2001,6723.609,91.446,346.12800000000016,344.82,0.0
51986.0,STARLINK-3645,PAYLOAD,2022-03-21 04:00:00,15.74236031,0.0001132,53.2174,82.2998,54.9548,325.7299,-0.0066366,-0.00878608,0.0,0 STARLINK-3645,1 51986U 22025AG  22080.16667824 -.00878608  00000-0 -66366-2 0  9990,2 51986  53.2174  82.2998 0001132  54.9548 325.7299 15.74236031  3094,6724.943,91.473,347.569,346.047,0.0
51986.0,STARLINK-3645,PAYLOAD,2022-03-21 12:00:00,15.7342732,9.17e-05,53.2171,80.6495,85.4958,25.0031,-0.0023743,-0.00324438,0.0,0 STARLINK-3645,1 51986U 22025AG  22080.50001157 -.00324438  00000-0 -23743-2 0  9998,2 51986  53.2171  80.6495 0000917  85.4958  25.0031 15.73427320  3141,6727.246999999999,91.52,349.72900000000016,348.495,0.0
51986.0,STARLINK-3645,PAYLOAD,2022-03-21 14:00:01,15.73275259,0.0001144,53.2171,80.2363,84.2648,138.5547,-0.00081446,-0.00113754,0.0,0 STARLINK-3645,1 51986U 22025AG  22080.58334491 -.00113754  00000-0 -81446-3 0  9998,2 51986  53.2171  80.2363 0001144  84.2648 138.5547 15.73275259  2106,6727.681,91.529,350.315,348.776,0.0
51986.0,STARLINK-3645,PAYLOAD,2022-03-21 20:00:01,15.73204387,0.0001114,53.2174,78.9975,74.3296,125.2256,5.0938e-06,9.5e-07,0.0,0 STARLINK-3645,1 51986U 22025AG  22080.83334491  .00000095  00000-0  50938-5 0  9991,2 51986  53.2174  78.9975 0001114  74.3296 125.2256 15.73204387  3192,6727.8830000000025,91.533,350.497,348.99800000000016,0.0
51986.0,STARLINK-3645,PAYLOAD,2022-03-21 22:00:00,15.73204114,0.0001117,53.2174,78.5849,79.3386,232.4507,7.637699999999998e-07,-5.12e-06,0.0,0 STARLINK-3645,1 51986U 22025AG  22080.91667824 -.00000512  00000-0  76377-6 0  9990,2 51986  53.2174  78.5849 0001117  79.3386 232.4507 15.73204114  2160,6727.8830000000025,91.533,350.5,348.997,0.0
51986.0,STARLINK-3645,PAYLOAD,2022-03-22 04:00:00,15.73240611,0.0001813,53.2202,77.3576,80.732,207.8061,5.6309e-05,7.302e-05,0.0,0 STARLINK-3645,1 51986U 22025AG  22081.16667824  .00007302  00000-0  56309-4 0  9992,2 51986  53.2202  77.3576 0001813  80.7320 207.8061 15.73240611  3257,6727.779,91.531,350.86400000000015,348.425,0.0
51986.0,STARLINK-3645,PAYLOAD,2022-03-22 14:00:01,15.73300261,0.0001648,53.2196,75.2961,77.875,51.8954,-0.00063038,-0.00088546,0.0,0 STARLINK-3645,1 51986U 22025AG  22081.58334491 -.00088546  00000-0 -63038-3 0  9996,2 51986  53.2196  75.2961 0001648  77.8750  51.8954 15.73300261  2260,6727.609,91.527,350.583,348.366,0.0
51986.0,STARLINK-3645,PAYLOAD,2022-03-22 22:00:01,15.73242308,0.0001386999999999,53.219,73.645,88.9565,129.8977,-0.00013105,-0.00019004,0.0,0 STARLINK-3645,1 51986U 22025AG  22081.91668981 -.00019004  00000-0 -13105-3 0  9990,2 51986  53.2190  73.6450 0001387  88.9565 129.8977 15.73242308  2321,6727.775,91.531,350.5730000000001,348.706,0.0
51986.0,STARLINK-3645,PAYLOAD,2022-03-23 12:00:00,15.73246576,0.0001138,53.218,70.7608,74.6383,209.8378,-0.00071532,-0.00100021,0.0,0 STARLINK-3645,1 51986U 22025AG  22082.50001157 -.00100021  00000-0 -71532-3 0  9990,2 51986  53.2180  70.7608 0001138  74.6383 209.8378 15.73246576  3468,6727.762,91.53,350.39300000000014,348.862,0.0
51986.0,STARLINK-3645,PAYLOAD,2022-03-23 14:00:01,15.73237764,0.000114,53.2181,70.3479,76.8601,319.857,-0.00083164,-0.00115924,0.0,0 STARLINK-3645,1 51986U 22025AG  22082.58334491 -.00115924  00000-0 -83164-3 0  9990,2 51986  53.2181  70.3479 0001140  76.8601 319.8570 15.73237764  2421,6727.788000000001,91.531,350.4190000000001,348.886,0.0
51986.0,STARLINK-3645,PAYLOAD,2022-03-23 20:00:01,15.73125188,0.0001193,53.2184,69.1093,87.84700000000002,285.5895,0.00067775,0.00095275,0.0,0 STARLINK-3645,1 51986U 22025AG  22082.83334491  .00095275  00000-0  67775-3 0  9992,2 51986  53.2184  69.1093 0001193  87.8470 285.5895 15.73125188  3512,6728.108,91.538,350.776,349.171,0.0
51986.0,STARLINK-3645,PAYLOAD,2022-03-23 22:00:00,15.73145851,0.0001271,53.2185,68.6969,89.4579,36.1893,0.00058969,0.00082765,0.0,0 STARLINK-3645,1 51986U 22025AG  22082.91667824  .00082765  00000-0  58969-3 0  9995,2 51986  53.2185  68.6969 0001271  89.4579  36.1893 15.73145851  2475,6728.05,91.536,350.77,349.059,0.0
51986.0,STARLINK-3645,PAYLOAD,2022-03-24 04:00:00,15.73209216,0.0001276,53.2185,67.4615,81.7213,20.5842,-0.00018106,-0.00025962,0.0,0 STARLINK-3645,1 51986U 22025AG  22083.16667824 -.00025962  00000-0 -18106-3 0  9990,2 51986  53.2185  67.4615 0001276  81.7213  20.5842 15.73209216  3563,6727.869000000002,91.533,350.592,348.875,0.0
51986.0,STARLINK-3645,PAYLOAD,2022-03-24 14:00:01,15.73188283,0.0001097,53.218,65.3995,81.249,222.2252,0.00013229,0.00017976,0.0,0 STARLINK-3645,1 51986U 22025AG  22083.58334491  .00017976  00000-0  13229-3 0  9992,2 51986  53.2180  65.3995 0001097  81.2490 222.2252 15.73188283  2586,6727.929,91.534,350.532,349.056,0.0
